{
"type": "FeatureCollection",
"name": "Reprojected_医院",
"crs": { "type": "name", "properties": { "name": "urn:ogc:def:crs:EPSG::3857" } },
"features": [
{ "type": "Feature", "properties": { "id": "way/922546295", "@id": "way/922546295", "addr:city": null, "addr:district": null, "addr:housenumber": null, "addr:postcode": null, "addr:province": null, "addr:street": null, "amenity": "hospital", "emergency": "yes", "healthcare": "hospital", "name": "西安市红会医院(高铁新城院区)", "name:zh": null }, "geometry": { "type": "Polygon", "coordinates": [ [ [ 12127669.619556959718466, 4081587.579041208140552 ], [ 12127258.015739753842354, 4081375.704598463140428 ], [ 12127420.865022834390402, 4080918.621892922092229 ], [ 12127556.585746008902788, 4080963.204313872382045 ], [ 12127932.890152685344219, 4081091.705190290231258 ], [ 12127669.619556959718466, 4081587.579041208140552 ] ] ] } },
{ "type": "Feature", "properties": { "id": "way/969670608", "@id": "way/969670608", "addr:city": "西安", "addr:district": "未央区", "addr:housenumber": "8", "addr:postcode": "710000", "addr:province": "陕西", "addr:street": "育新路", "amenity": "hospital", "emergency": "yes", "healthcare": "hospital", "name": "西航医院", "name:zh": null }, "geometry": { "type": "Polygon", "coordinates": [ [ [ 12128622.68137738853693, 4076392.904252602718771 ], [ 12128620.08763325214386, 4076251.013464227318764 ], [ 12128866.34861078672111, 4076251.755072574596852 ], [ 12128868.953486869111657, 4076391.785084231756628 ], [ 12128622.68137738853693, 4076392.904252602718771 ] ] ] } },
{ "type": "Feature", "properties": { "id": "way/969677249", "@id": "way/969677249", "addr:city": "西安", "addr:district": "未央区", "addr:housenumber": null, "addr:postcode": "710000", "addr:province": "陕西", "addr:street": "凤城五路", "amenity": "hospital", "emergency": null, "healthcare": "hospital", "name": "长庆兴隆园医院", "name:zh": null }, "geometry": { "type": "Polygon", "coordinates": [ [ [ 12128173.87458635494113, 4073348.407535180449486 ], [ 12128172.271585687994957, 4073269.979267774149776 ], [ 12128365.488825859501958, 4073270.208431737497449 ], [ 12128368.00464635156095, 4073347.032541965134442 ], [ 12128173.87458635494113, 4073348.407535180449486 ] ] ] } },
{ "type": "Feature", "properties": { "id": "way/969794213", "@id": "way/969794213", "addr:city": "西安", "addr:district": "未央区", "addr:housenumber": "55", "addr:postcode": "710000", "addr:province": "陕西", "addr:street": "凤城六路", "amenity": "hospital", "emergency": "no", "healthcare": "hospital", "name": "未央华瑞医院", "name:zh": null }, "geometry": { "type": "Polygon", "coordinates": [ [ [ 12126896.973235262557864, 4073918.46446770709008 ], [ 12126896.973235262557864, 4073886.608895383309573 ], [ 12126977.846845325082541, 4073887.094210242386907 ], [ 12126976.86723380535841, 4073916.752380074001849 ], [ 12126896.973235262557864, 4073918.46446770709008 ] ] ] } },
{ "type": "Feature", "properties": { "id": "way/969842445", "@id": "way/969842445", "addr:city": "西安", "addr:district": "未央区", "addr:housenumber": null, "addr:postcode": "710000", "addr:province": "陕西", "addr:street": "凤城七路", "amenity": "hospital", "emergency": "no", "healthcare": "hospital", "name": "西安经开妇幼医院", "name:zh": null }, "geometry": { "type": "Polygon", "coordinates": [ [ [ 12124718.762495014816523, 4074378.526637533679605 ], [ 12124717.537980614230037, 4074297.907228973694146 ], [ 12124806.493385706096888, 4074297.408415024634451 ], [ 12124804.044356908649206, 4074379.268123055342585 ], [ 12124718.762495014816523, 4074378.526637533679605 ] ] ] } },
{ "type": "Feature", "properties": { "id": "way/969842471", "@id": "way/969842471", "addr:city": "西安", "addr:district": "未央区", "addr:housenumber": "111", "addr:postcode": "710000", "addr:province": "陕西", "addr:street": "凤城四路", "amenity": "hospital", "emergency": "yes", "healthcare": "hospital", "name": "西安急救中心", "name:zh": null }, "geometry": { "type": "Polygon", "coordinates": [ [ [ 12124579.412756439298391, 4073230.320491889957339 ], [ 12124603.624745685607195, 4073027.634235834702849 ], [ 12124699.615542596206069, 4073034.387689858209342 ], [ 12124680.479722129181027, 4073239.608343655709177 ], [ 12124579.412756439298391, 4073230.320491889957339 ] ] ] } },
{ "type": "Feature", "properties": { "id": "way/969958529", "@id": "way/969958529", "addr:city": "西安", "addr:district": "未央区", "addr:housenumber": "9", "addr:postcode": "710000", "addr:province": "陕西", "addr:street": "凤城三路", "amenity": "hospital", "emergency": null, "healthcare": "hospital", "name": "西安凤城医院", "name:zh": null }, "geometry": { "type": "Polygon", "coordinates": [ [ [ 12126519.266203001141548, 4072509.099631807301193 ], [ 12126517.462827250361443, 4072390.226079170592129 ], [ 12126711.759866481646895, 4072381.181549996137619 ], [ 12126709.644796157255769, 4072505.177148579619825 ], [ 12126519.266203001141548, 4072509.099631807301193 ] ] ] } },
{ "type": "Feature", "properties": { "id": "way/970029657", "@id": "way/970029657", "addr:city": "西安", "addr:district": "未央区", "addr:housenumber": "17", "addr:postcode": "710000", "addr:province": "陕西", "addr:street": "文景路", "amenity": "hospital", "emergency": "yes", "healthcare": "hospital", "name": "长安医院", "name:zh": null }, "geometry": { "type": "Polygon", "coordinates": [ [ [ 12126410.373477106913924, 4072369.710778986103833 ], [ 12126406.499558828771114, 4072110.374712680466473 ], [ 12126793.245733741670847, 4072109.404235448222607 ], [ 12126791.62046917527914, 4072356.123793825041503 ], [ 12126410.373477106913924, 4072369.710778986103833 ] ] ] } },
{ "type": "Feature", "properties": { "id": "way/970029678", "@id": "way/970029678", "addr:city": "西安", "addr:district": "未央区", "addr:housenumber": "32", "addr:postcode": "710000", "addr:province": "陕西", "addr:street": "凤城二路", "amenity": "hospital", "emergency": "no", "healthcare": "hospital", "name": "西安海红医院", "name:zh": null }, "geometry": { "type": "Polygon", "coordinates": [ [ [ 12124931.85026428848505, 4071563.995724225882441 ], [ 12124927.920686263591051, 4071503.317030462902039 ], [ 12124978.871617199853063, 4071503.842677457723767 ], [ 12124975.19807400368154, 4071562.688338899984956 ], [ 12124931.85026428848505, 4071563.995724225882441 ] ] ] } },
{ "type": "Feature", "properties": { "id": "way/971087010", "@id": "way/971087010", "addr:city": "西安", "addr:district": "未央区", "addr:housenumber": null, "addr:postcode": "710000", "addr:province": "陕西", "addr:street": null, "amenity": "hospital", "emergency": "no", "healthcare": "hospital", "name": "西安交大二附院整合心血管病医院", "name:zh": null }, "geometry": { "type": "Polygon", "coordinates": [ [ [ 12128147.124512718990445, 4068624.997670356649905 ], [ 12128147.124512718990445, 4068534.218980563338846 ], [ 12128332.159770315513015, 4068533.531776395160705 ], [ 12128331.235818542540073, 4068623.380706472788006 ], [ 12128147.124512718990445, 4068624.997670356649905 ] ] ] } },
{ "type": "Feature", "properties": { "id": "way/1039520231", "@id": "way/1039520231", "addr:city": null, "addr:district": null, "addr:housenumber": null, "addr:postcode": null, "addr:province": null, "addr:street": null, "amenity": "hospital", "emergency": "yes", "healthcare": "hospital", "name": "西安市中医医院", "name:zh": null }, "geometry": { "type": "Polygon", "coordinates": [ [ [ 12128542.286441136151552, 4075239.127458450384438 ], [ 12128544.579622646793723, 4074914.444611466024071 ], [ 12128874.519461408257484, 4074912.705408634152263 ], [ 12128866.682569256052375, 4075241.419497407507151 ], [ 12128542.286441136151552, 4075239.127458450384438 ] ] ] } },
{ "type": "Feature", "properties": { "id": "way/1176354276", "@id": "way/1176354276", "addr:city": null, "addr:district": null, "addr:housenumber": null, "addr:postcode": null, "addr:province": null, "addr:street": null, "amenity": "hospital", "emergency": "yes", "healthcare": "hospital", "name": "西安市第三医院", "name:zh": null }, "geometry": { "type": "Polygon", "coordinates": [ [ [ 12128913.548074880614877, 4072324.0299978479743 ], [ 12128909.963587278500199, 4072160.408318297937512 ], [ 12129177.809414075687528, 4072171.151015173643827 ], [ 12129178.310351783409715, 4072063.077523348387331 ], [ 12129482.045582413673401, 4072062.470977605320513 ], [ 12129476.679982958361506, 4072321.037636800203472 ], [ 12128913.548074880614877, 4072324.0299978479743 ] ] ] } },
{ "type": "Feature", "properties": { "id": "way/1222465369", "@id": "way/1222465369", "addr:city": null, "addr:district": null, "addr:housenumber": null, "addr:postcode": null, "addr:province": null, "addr:street": null, "amenity": "hospital", "emergency": null, "healthcare": "hospital", "name": "西安市儿童医院经开院区", "name:zh": null }, "geometry": { "type": "Polygon", "coordinates": [ [ [ 12118843.79844475351274, 4078571.366545333061367 ], [ 12119158.153554806485772, 4078625.825392140541226 ], [ 12119215.616675952449441, 4078647.309600790962577 ], [ 12119125.603735696524382, 4079111.165382207371294 ], [ 12118760.242034966126084, 4079048.625404238700867 ], [ 12118843.79844475351274, 4078571.366545333061367 ] ] ] } },
{ "type": "Feature", "properties": { "id": "way/1272338184", "@id": "way/1272338184", "addr:city": null, "addr:district": null, "addr:housenumber": null, "addr:postcode": null, "addr:province": null, "addr:street": null, "amenity": "hospital", "emergency": null, "healthcare": "hospital", "name": "西安唐城医院", "name:zh": "西安唐城医院" }, "geometry": { "type": "Polygon", "coordinates": [ [ [ 12130158.367148727178574, 4068884.725492377765477 ], [ 12130328.441066762432456, 4068883.52621662337333 ], [ 12130328.674837691709399, 4068971.194956564810127 ], [ 12130156.931127296760678, 4068972.151689566671848 ], [ 12130158.367148727178574, 4068884.725492377765477 ] ] ] } },
{ "type": "Feature", "properties": { "id": "node/3463314725", "@id": "node/3463314725", "addr:city": null, "addr:district": null, "addr:housenumber": null, "addr:postcode": null, "addr:province": null, "addr:street": null, "amenity": "hospital", "emergency": null, "healthcare": "hospital", "name": "武警医院", "name:zh": null }, "geometry": { "type": "Point", "coordinates": [ 12114791.401625560596585, 4067056.907220262568444 ] } }
]
}
